IRIDIUM 151             
1 43074U 17083E   26117.15711982  .00000090  00000+0  24992-4 0  9996
2 43074  86.3985 343.3991 0002132  84.5673 275.5766 14.34218108436825
IRIDIUM 134             
1 43075U 17083F   26117.33471279  .00000103  00000+0  29629-4 0  9996
2 43075  86.3988 343.3324 0002288  86.0555 274.0903 14.34217961436819
IRIDIUM 137             
1 43076U 17083G   26117.34739685  .00000023  00000+0  10292-5 0  9994
2 43076  86.3990 343.4187 0002071  73.3863 286.7560 14.34217828436880
IRIDIUM 141             
1 43077U 17083H   26117.13174706  .00000219  00000+0  71193-4 0  9992
2 43077  86.3985 343.3426 0002074  87.2800 272.8634 14.34219169436853
IRIDIUM 153             
1 43078U 17083J   26117.29323367  .00000049  00000+0  10429-4 0  9995
2 43078  86.3936 311.7652 0002142  95.0551 265.0889 14.34217850437982
IRIDIUM 131             
1 43079U 17083K   26117.32836986  .00000072  00000+0  18488-4 0  9995
2 43079  86.3991 343.4430 0002075  86.1415 274.0018 14.34217815436811
IRIDIUM 144             
1 43249U 18030A   26117.29957976  .00000074  00000+0  19226-4 0  9999
2 43249  86.3933 311.6929 0002226  86.0487 274.0963 14.34217440422843
IRIDIUM 149             
1 43250U 18030B   26117.23615351  .00000080  00000+0  21565-4 0  9999
2 43250  86.3932 311.6870 0002073  90.3553 269.7880 14.34217597422854
IRIDIUM 157             
1 43251U 18030C   26117.25517902  .00000077  00000+0  20317-4 0  9995
2 43251  86.3934 311.7311 0002169  89.2794 270.8650 14.34217925422839
IRIDIUM 140             
1 43252U 18030D   26117.27420883  .00000083  00000+0  22456-4 0  9992
2 43252  86.3935 311.7358 0002228  89.0028 271.1423 14.34217724422891
IRIDIUM 145             
1 43253U 18030E   26117.26152201  .00000073  00000+0  18975-4 0  9998
2 43253  86.3935 311.7135 0002357  82.4020 277.7443 14.34217910422821
IRIDIUM 146             
1 43254U 18030F   26117.45179939  .00000074  00000+0  19451-4 0  9998
2 43254  86.3934 311.6462 0002221  86.4054 273.7396 14.34217969422865
IRIDIUM 148             
1 43255U 18030G   26117.28056524  .00000072  00000+0  18725-4 0  9995
2 43255  86.3936 311.7603 0002087  86.6823 273.4612 14.34215713422876
IRIDIUM 142             
1 43256U 18030H   26117.45815817  .00000069  00000+0  17502-4 0  9991
2 43256  86.3932 311.5768 0002283  84.2346 275.9110 14.34215254422864
IRIDIUM 150             
1 43257U 18030J   26117.28689102  .00000002  00000+0 -64438-5 0  9998
2 43257  86.3931 311.7630 0002089  88.3170 271.8265 14.34217572422869
IRIDIUM 143             
1 43258U 18030K   26117.05855811  .00000032  00000+0  43942-5 0  9995
2 43258  86.3939 311.9493 0002252  86.3097 273.8356 14.34217810422762
IRIDIUM 161             
1 43478U 18047C   26117.41881653  .00000192  00000+0  50935-4 0  9996
2 43478  86.4446 109.7027 0002031  91.4576 268.6858 14.43281718417817
